[{"OBJECT_NAME":"STARLINK-5484","OBJECT_ID":"2023-021A","EPOCH":"2026-03-09T19:21:48.546432","MEAN_MOTION":14.9832984,"ECCENTRICITY":0.0003305,"INCLINATION":70.0004,"RA_OF_ASC_NODE":204.2441,"ARG_OF_PERICENTER":268.9762,"MEAN_ANOMALY":91.1018,"EPHEMERIS_TYPE":0,"CLASSIFICATION_TYPE":"U","NORAD_CAT_ID":55628,"ELEMENT_SET_NO":999,"REV_AT_EPOCH":16831,"BSTAR":0.00021094722,"MEAN_MOTION_DOT":2.425e-5,"MEAN_MOTION_DDOT":0},{"OBJECT_NAME":"CZ-1 DEB","OBJECT_ID":"1970-034D","EPOCH":"2026-03-09T20:10:39.614592","MEAN_MOTION":13.9655912,"ECCENTRICITY":0.06611872,"INCLINATION":68.3694,"RA_OF_ASC_NODE":240.5133,"ARG_OF_PERICENTER":139.7447,"MEAN_ANOMALY":225.4605,"EPHEMERIS_TYPE":0,"CLASSIFICATION_TYPE":"U","NORAD_CAT_ID":25882,"ELEMENT_SET_NO":999,"REV_AT_EPOCH":30910,"BSTAR":0.0010001113,"MEAN_MOTION_DOT":9.706e-5,"MEAN_MOTION_DDOT":0}]
